STARLINK-30423          
1 57843U 23141D   24272.53363820  .00025590  00000+0  77019-3 0  9992
2 57843  53.1580 213.5227 0000529 108.1285 251.9775 15.34223930 59602
STARLINK-30292          
1 57844U 23141E   24272.58026997  .00002179  00000+0  76020-4 0  9999
2 57844  53.1585 214.0186 0001098 120.0563 240.0549 15.34216513 59609
STARLINK-30419          
1 57845U 23141F   24272.08542079  .00010722  00000+0  39900-3 0  9997
2 57845  53.1605 200.6545 0001382 102.3197 257.7958 15.28034999 59737
STARLINK-30420          
1 57846U 23141G   24272.13440049 -.00001854  00000+0 -40734-4 0  9994
2 57846  53.1599 212.3091 0001546  79.3664 280.7514 15.36438103 59581
STARLINK-30416          
1 57847U 23141H   24272.55654282 -.00000561  00000+0 -55418-5 0  9997
2 57847  53.1599 213.1279 0000925 102.3456 257.7650 15.34208830 59614
STARLINK-30426          
1 57848U 23141J   24272.13312580  .00002931  00000+0  98389-4 0  9998
2 57848  53.1591 215.2567 0001083  70.3952 289.7168 15.34217479 59541
STARLINK-30430          
1 57849U 23141K   24272.55687152  .00000107  00000+0  14371-4 0  9997
2 57849  53.1592 213.1681 0001146 113.5761 246.5362 15.34220841 59617
STARLINK-30425          
1 57850U 23141L   24272.06331835  .00006876  00000+0  21552-3 0  9996
2 57850  53.1582 215.5328 0001345  79.5202 280.5952 15.34239989 59531
STARLINK-30405          
1 57851U 23141M   24272.53322249 -.00001318  00000+0 -28051-4 0  9998
2 57851  53.1587 212.9657 0000974  64.3710 295.7393 15.34235496 59611
STARLINK-30431          
1 57852U 23141N   24272.53808185  .00001098  00000+0  43829-4 0  9990
2 57852  53.1585 214.4674 0000871  77.3576 282.7524 15.34231451 59581
STARLINK-30404          
1 57853U 23141P   24272.53842200  .00005198  00000+0  16576-3 0  9990
2 57853  53.1586 214.4720 0001038 107.6907 252.4209 15.34223227 59593
STARLINK-30412          
1 57854U 23141Q   24272.13791194 -.00001077  00000+0 -20902-4 0  9995
2 57854  53.1583 216.2386 0001025 101.9593 258.1525 15.34219280 59535
STARLINK-30392          
1 57855U 23141R   24272.13823757  .00004587  00000+0  14756-3 0  9993
2 57855  53.1584 216.2387 0001031  82.4319 277.6801 15.34232314 59530
STARLINK-30291          
1 57856U 23141S   24272.57993258  .00009250  00000+0  28615-3 0  9997
2 57856  53.1583 214.0210 0000943  74.5395 285.5711 15.34222085 59608
STARLINK-30424          
1 57857U 23141T   24272.53507533  .00002496  00000+0  85427-4 0  9991
2 57857  53.1589 201.9690 0001176 100.9365 259.1769 15.34222776 59766
STARLINK-30290          
1 57858U 23141U   24272.12891564 -.00009753  00000+0 -27966-3 0  9995
2 57858  53.1578 216.1827 0000949  59.6718 300.4378 15.34203046 59534
STARLINK-30414          
1 57859U 23141V   24272.13358235  .00004262  00000+0  13796-3 0  9994
2 57859  53.1582 216.2082 0001254  82.8910 277.2235 15.34223536 59535
STARLINK-30272          
1 57860U 23141W   24272.57527094  .00006118  00000+0  19310-3 0  9995
2 57860  53.1590 213.9870 0001272  90.3325 269.7824 15.34227355 59600
STARLINK-30432          
1 57864U 23144A   24272.30754202  .00001310  00000+0  11198-3 0  9991
2 57864  43.0032 273.5569 0001203 275.1040  84.9665 15.02544332 58231
STARLINK-30427          
1 57865U 23144B   24272.03830562  .00001414  00000+0  11976-3 0  9995
2 57865  43.0056 274.9756 0001350 272.8259  87.2429 15.02536693 58190
STARLINK-30393          
1 57866U 23144C   24272.31408505  .00001956  00000+0  15981-3 0  9996
2 57866  43.0024 272.7478 0001157 269.7879  90.2831 15.02541637 58242
STARLINK-30439          
1 57867U 23144D   24272.03497559  .00001538  00000+0  12887-3 0  9991
2 57867  43.0028 274.9531 0001113 278.8488  81.2228 15.02539422 58249
STARLINK-30442          
1 57868U 23144E   24272.03163859  .00001241  00000+0  10695-3 0  9991
2 57868  43.0033 274.8862 0001399 273.9180  86.1502 15.02537243 58195
STARLINK-30441          
1 57869U 23144F   24272.31086518  .00001726  00000+0  14276-3 0  9996
2 57869  43.0030 273.5370 0001238 285.3314  74.7391 15.02544057 58236
STARLINK-30460          
1 57870U 23144G   24271.43001574 -.00000302  00000+0 -72873-5 0  9999
2 57870  43.0031 278.1525 0001116 268.8981  91.1734 15.02538795 58150
STARLINK-30444          
1 57871U 23144H   24272.02165563  .00000531  00000+0  54347-4 0  9992
2 57871  43.0039 274.8499 0001131 271.0724  88.9989 15.02536074 57962
STARLINK-30446          
1 57872U 23144J   24272.24790119  .00003584  00000+0  28027-3 0  9994
2 57872  43.0024 260.3285 0001229 264.6418  95.4284 15.02530279 58150
STARLINK-30445          
1 57873U 23144K   24272.35736870  .00001771  00000+0  14609-3 0  9998
2 57873  43.0007 273.0756 0000959 259.1440 100.9294 15.02541501 58242
STARLINK-30447          
1 57874U 23144L   24271.99230520  .00000587  00000+0  58502-4 0  9994
2 57874  43.0043 249.3583 0001130 271.8797  88.1916 15.02537512 58521
STARLINK-30434          
1 57875U 23144M   24272.01499692  .00000262  00000+0  34474-4 0  9998
2 57875  43.0036 274.8014 0001159 269.4868  90.5842 15.02535738 58241
STARLINK-30429          
1 57876U 23144N   24272.47700097 -.00004684  00000+0 -33162-3 0  9999
2 57876  43.0029 272.2477 0001146 268.1632  91.9079 15.02568483 58307
STARLINK-30284          
1 57877U 23144P   24272.60084587  .00004991  00000+0  38420-3 0  9995
2 57877  43.0021 233.2161 0001241 258.9700 101.1003 15.02542544 58767
STARLINK-30433          
1 57878U 23144Q   24272.00833512  .00000522  00000+0  53739-4 0  9997
2 57878  43.0034 274.7476 0001102 277.0187  83.0530 15.02537334 58234
STARLINK-30358          
1 57879U 23144R   24272.00611721  .00001482  00000+0  12476-3 0  9992
2 57879  43.0037 274.7315 0001264 272.9994  87.0704 15.02536570 58237
STARLINK-30436          
1 57880U 23144S   24272.33073820  .00001861  00000+0  15284-3 0  9993
2 57880  43.0025 272.8724 0001223 280.6177  79.4528 15.02534050 58288
STARLINK-30406          
1 57881U 23144T   24272.25541108  .00042862  00000+0  14084-2 0  9996
2 57881  42.9957 254.3880 0027830 120.7523 239.6075 15.30494696 58492
STARLINK-30339          
1 57882U 23144U   24271.39672131  .00000075  00000+0  20615-4 0  9991
2 57882  43.0013 277.9032 0001088 279.2853  80.7866 15.02530591 58140
STARLINK-30282          
1 57883U 23144V   24272.32185727  .00001429  00000+0  12086-3 0  9992
2 57883  43.0025 272.8048 0001392 264.2431  95.8253 15.02536983 58282
STARLINK-30340          
1 57884U 23144W   24272.31741052  .00003520  00000+0  27540-3 0  9996
2 57884  43.0013 272.7634 0001119 278.6306  81.4410 15.02552788 58284
STARLINK-30279          
1 57885U 23144X   24272.32074938  .00003633  00000+0  28393-3 0  9992
2 57885  43.0002 272.7940 0000512 241.6502 118.4288 15.02525217 58222
STARLINK-30465          
1 57891U 23146A   24272.39008228  .00001016  00000+0  90265-4 0  9998
2 57891  43.0038 298.8101 0001352 272.5111  87.5577 15.02544676 57741
STARLINK-30470          
1 57892U 23146B   24272.38676061 -.00003090  00000+0 -21378-3 0  9998
2 57892  43.0023 298.7835 0001491 283.5579  76.5097 15.02538130 57746
STARLINK-30473          
1 57893U 23146C   24272.42991483  .00002835  00000+0  22484-3 0  9995
2 57893  43.0045 298.1869 0001280 286.5804  73.4898 15.02537759 57754
STARLINK-30443          
1 57894U 23146D   24272.38007861 -.00005859  00000+0 -41852-3 0  9990
2 57894  43.0042 298.7333 0001025 299.6129  60.4611 15.02578708 57743
STARLINK-30467          
1 57895U 23146E   24272.38342614  .00001120  00000+0  97937-4 0  9990
2 57895  43.0030 298.7590 0001292 264.1628  95.9067 15.02543623 57749
STARLINK-30469          
1 57896U 23146F   24272.37675794  .00002658  00000+0  21164-3 0  9993
2 57896  43.0017 298.7084 0000277 259.3200 100.7611 15.02552309 57748
STARLINK-30474          
1 57897U 23146G   24272.37122295  .00001046  00000+0  92483-4 0  9990
2 57897  43.0039 298.6698 0001005 263.3018  96.7710 15.02533629 57743
STARLINK-30479          
1 57898U 23146H   24272.50306848  .00001243  00000+0  10711-3 0  9996
2 57898  43.0036 297.9357 0001521 275.0989  84.9680 15.02533152 57763
STARLINK-30481          
1 57899U 23146J   24272.10086697  .00001451  00000+0  12250-3 0  9991
2 57899  43.0044 300.0807 0001635 277.2185  82.8472 15.02535883 57700
STARLINK-30457          
1 57900U 23146K   24272.41772257  .00000873  00000+0  79670-4 0  9999
2 57900  43.0025 298.1558 0001268 265.5906  94.4792 15.02534694 56695
STARLINK-30472          
1 57901U 23146L   24272.39995404  .00000356  00000+0  41404-4 0  9998
2 57901  43.0023 298.0197 0001125 273.2033  86.8680 15.02545626 56699
STARLINK-30462          
1 57902U 23146M   24272.42658322 -.00002530  00000+0 -17204-3 0  9996
2 57902  43.0042 298.2213 0002098 259.7902 100.2704 15.02579216 57653
STARLINK-30449          
1 57903U 23146N   24272.39662205  .00001372  00000+0  11659-3 0  9997
2 57903  43.0030 297.9926 0001556 275.4429  84.6236 15.02547278 56696
STARLINK-30466          
1 57904U 23146P   24272.42327151 -.00000765  00000+0 -41605-4 0  9992
2 57904  43.0010 298.1994 0001000 277.5769  82.4960 15.02535316 56697
STARLINK-30451          
1 57905U 23146Q   24272.39329254  .00000965  00000+0  86468-4 0  9991
2 57905  43.0025 297.9699 0001245 264.6984  95.3716 15.02548368 56693
STARLINK-30428          
1 57906U 23146R   24272.48641291  .00001047  00000+0  92545-4 0  9995
2 57906  43.0024 297.8122 0001026 273.9360  86.1365 15.02540913 57496
STARLINK-30482          
1 57907U 23146S   24272.41661121  .00001397  00000+0  11850-3 0  9990
2 57907  43.0018 298.1486 0001375 260.4961  99.5725 15.02532379 56700
STARLINK-30464          
1 57908U 23146T   24272.40995156  .00001097  00000+0  96257-4 0  9990
2 57908  43.0029 298.0996 0001338 273.9636  86.1053 15.02534160 56699
STARLINK-30463          
1 57909U 23146U   24272.41327249  .00000522  00000+0  53705-4 0  9997
2 57909  43.0025 298.1233 0000988 279.8803  80.1928 15.02544272 56692
